CSS (TIANHE)            
1 48274U 21035A   23213.75272670  .00013915  00000+0  16731-3 0  9992
2 48274  41.4728 239.0162 0007015  52.2594 307.8880 15.60558415128955
